[{"OBJECT_NAME":"COSMOS 2361 [-]","OBJECT_ID":"1998-076A","EPOCH":"2022-08-19T08:04:11.518752","MEAN_MOTION":13.73025586,"ECCENTRICITY":0.0032512,"INCLINATION":82.9371,"RA_OF_ASC_NODE":159.6863,"ARG_OF_PERICENTER":35.7195,"MEAN_ANOMALY":88.698,"EPHEMERIS_TYPE":0,"CLASSIFICATION_TYPE":"U","NORAD_CAT_ID":25590,"ELEMENT_SET_NO":999,"REV_AT_EPOCH":18486,"BSTAR":4.1409e-5,"MEAN_MOTION_DOT":5.4e-7,"MEAN_MOTION_DDOT":0},{"OBJECT_NAME":"COSMOS 2378 [-]","OBJECT_ID":"2001-023A","EPOCH":"2022-08-19T12:52:40.013472","MEAN_MOTION":13.73973395,"ECCENTRICITY":0.0032902,"INCLINATION":82.9302,"RA_OF_ASC_NODE":177.4577,"ARG_OF_PERICENTER":341.903,"MEAN_ANOMALY":18.0957,"EPHEMERIS_TYPE":0,"CLASSIFICATION_TYPE":"U","NORAD_CAT_ID":26818,"ELEMENT_SET_NO":999,"REV_AT_EPOCH":6297,"BSTAR":3.1285e-5,"MEAN_MOTION_DOT":4.4e-7,"MEAN_MOTION_DDOT":0},{"OBJECT_NAME":"COSMOS 2389 [-]","OBJECT_ID":"2002-026A","EPOCH":"2022-08-19T11:22:56.836416","MEAN_MOTION":13.7498016,"ECCENTRICITY":0.0045808,"INCLINATION":82.9511,"RA_OF_ASC_NODE":123.377,"ARG_OF_PERICENTER":198.3382,"MEAN_ANOMALY":334.7225,"EPHEMERIS_TYPE":0,"CLASSIFICATION_TYPE":"U","NORAD_CAT_ID":27436,"ELEMENT_SET_NO":999,"REV_AT_EPOCH":1502,"BSTAR":1.8174e-5,"MEAN_MOTION_DOT":3.3e-7,"MEAN_MOTION_DDOT":0},{"OBJECT_NAME":"COSMOS 2398 [-]","OBJECT_ID":"2003-023A","EPOCH":"2022-08-19T13:26:34.539936","MEAN_MOTION":13.72215325,"ECCENTRICITY":0.0030083,"INCLINATION":82.9461,"RA_OF_ASC_NODE":85.1078,"ARG_OF_PERICENTER":235.8749,"MEAN_ANOMALY":123.9548,"EPHEMERIS_TYPE":0,"CLASSIFICATION_TYPE":"U","NORAD_CAT_ID":27818,"ELEMENT_SET_NO":999,"REV_AT_EPOCH":96204,"BSTAR":3.6435e-5,"MEAN_MOTION_DOT":4.8e-7,"MEAN_MOTION_DDOT":0},{"OBJECT_NAME":"COSMOS 2407 [+]","OBJECT_ID":"2004-028A","EPOCH":"2022-08-19T13:06:48.202272","MEAN_MOTION":13.7611781,"ECCENTRICITY":0.0038549,"INCLINATION":82.9603,"RA_OF_ASC_NODE":29.7077,"ARG_OF_PERICENTER":199.3093,"MEAN_ANOMALY":160.6602,"EPHEMERIS_TYPE":0,"CLASSIFICATION_TYPE":"U","NORAD_CAT_ID":28380,"ELEMENT_SET_NO":999,"REV_AT_EPOCH":90783,"BSTAR":-4.2091e-7,"MEAN_MOTION_DOT":1.5e-7,"MEAN_MOTION_DDOT":0},{"OBJECT_NAME":"COSMOS 2429 [-]","OBJECT_ID":"2007-038A","EPOCH":"2022-08-19T07:40:13.346688","MEAN_MOTION":13.74966619,"ECCENTRICITY":0.0038346,"INCLINATION":82.9834,"RA_OF_ASC_NODE":156.003,"ARG_OF_PERICENTER":176.6156,"MEAN_ANOMALY":183.5268,"EPHEMERIS_TYPE":0,"CLASSIFICATION_TYPE":"U","NORAD_CAT_ID":32052,"ELEMENT_SET_NO":999,"REV_AT_EPOCH":74954,"BSTAR":4.9792e-5,"MEAN_MOTION_DOT":6.3e-7,"MEAN_MOTION_DDOT":0}]