COSMOS 2407             
1 28380U 04028A   22231.54639123  .00000015  00000+0 -42091-6 0  9996
2 28380  82.9603  29.7077 0038549 199.3093 160.6602 13.76117810907839
COSMOS 2361 [-]         
1 25590U 98076A   22231.33624443  .00000054  00000+0  41409-4 0  9990
2 25590  82.9371 159.6863 0032512  35.7195  88.6980 13.73025586184860
COSMOS 2378 [-]         
1 26818U 01023A   22231.53657423  .00000044  00000+0  31285-4 0  9996
2 26818  82.9302 177.4577 0032902 341.9030  18.0957 13.73973395 62979
COSMOS 2389 [-]         
1 27436U 02026A   22231.47426894  .00000033  00000+0  18174-4 0  9996
2 27436  82.9511 123.3770 0045808 198.3382 334.7225 13.74980160 15025
COSMOS 2398 [-]         
1 27818U 03023A   22231.56012199  .00000048  00000+0  36435-4 0  9993
2 27818  82.9461  85.1078 0030083 235.8749 123.9548 13.72215325962043
COSMOS 2429 [-]         
1 32052U 07038A   22231.31959892  .00000063  00000+0  49792-4 0  9999
2 32052  82.9834 156.0030 0038346 176.6156 183.5268 13.74966619749543
